IRIDIUM 155             
1 43573U 18061E   21021.61553697  .00000087  00000-0  23865-4 0  9999
2 43573  86.4002 161.0896 0001717  81.0764 279.0626 14.34219223130622
IRIDIUM 154             
1 43574U 18061F   21021.80582526  .00000081  00000-0  21843-4 0  9992
2 43574  86.4008 161.0501 0002335  96.5913 263.5548 14.34216443130707
IRIDIUM 163             
1 43575U 18061G   21021.36818687  .00000087  00000-0  24074-4 0  9999
2 43575  86.4004 161.2080 0001979 111.4001 248.7406 14.34216503130611
IRIDIUM 156             
1 43576U 18061H   21021.83118774  .00000079  00000-0  21224-4 0  9997
2 43576  86.4003 161.0196 0001678  99.0592 261.0794 14.34215742130666
IRIDIUM 164             
1 43577U 18061J   21021.32378125  .00000087  00000-0  24131-4 0  9999
2 43577  86.4004 161.2418 0002223  99.6326 260.5121 14.34215571130641
IRIDIUM 159             
1 43578U 18061K   21021.36183978  .00000087  00000-0  24075-4 0  9991
2 43578  86.4003 161.2042 0002220  97.0588 263.0861 14.34218177130614
IRIDIUM 180             
1 43922U 19002A   21021.71017740  .00000061  00000-0  14826-4 0  9997
2 43922  86.3966  97.9281 0003102 109.1224 251.0307 14.34217719106319
IRIDIUM 176             
1 43923U 19002B   21021.46428623  .00000146  00000-0  19220-4 0  9993
2 43923  86.6101  98.0627 0002651  95.7048 264.4471 14.72254753109002
IRIDIUM 168             
1 43924U 19002C   21021.70384355  .00000057  00000-0  13276-4 0  9990
2 43924  86.3969  97.9522 0002474  98.0896 262.0581 14.34216310106259
IRIDIUM 173             
1 43925U 19002D   21021.69115120  .00000060  00000-0  14385-4 0  9997
2 43925  86.3966  97.9266 0002364  99.3311 260.8153 14.34215929106241
IRIDIUM 169             
1 43926U 19002E   21021.58103894  .00000112  00000-0  30090-4 0  9990
2 43926  86.4251 129.5706 0005062  19.2319 340.9069 14.38613121106626
IRIDIUM 172             
1 43927U 19002F   21021.75457423  .00000066  00000-0  16586-4 0  9992
2 43927  86.3965  97.9019 0002441  99.9804 260.1667 14.34217764106250
IRIDIUM 175             
1 43928U 19002G   21021.45809934  .00000137  00000-0  17877-4 0  9991
2 43928  86.6085  97.9141 0001999 110.7242 249.4189 14.72254670108999
IRIDIUM 171             
1 43929U 19002H   21021.73555166  .00000058  00000-0  13613-4 0  9994
2 43929  86.3975  97.9971 0002460  97.3406 262.8069 14.34216824106241
IRIDIUM 170             
1 43930U 19002J   21021.47044548  .00000144  00000-0  18997-4 0  9990
2 43930  86.6102  98.0668 0002460 101.8007 258.3486 14.72257427109018
IRIDIUM 167             
1 43931U 19002K   21021.45013307  .00000073  00000-0  19175-4 0  9998
2 43931  86.3967  98.0343 0002932 105.3680 254.7840 14.34216605106208
